ORBCOMM FM24            
1 25478U 98053D   24355.09936091  .00002103  00000+0  74739-3 0  9995
2 25478  45.0089  37.7074 0001615 312.6397  47.4314 14.37197663371951
ORBCOMM FM25            
1 25479U 98053E   24355.13763027  .00001811  00000+0  65053-3 0  9992
2 25479  45.0080  35.7808 0002052  36.7736 323.3253 14.37178357371972
ORBCOMM FM26            
1 25480U 98053F   24355.17807703  .00001710  00000+0  62665-3 0  9992
2 25480  45.0076  30.8388 0003544  85.0448 275.0804 14.36381894372003
ORBCOMM FM27            
1 25481U 98053G   24354.57113128  .00002105  00000+0  74826-3 0  9998
2 25481  45.0062  38.7125 0002310 270.1041  89.9542 14.37178566371822
ORBCOMM FM28            
1 25482U 98053H   24355.12470395  .00002137  00000+0  75451-3 0  9993
2 25482  45.0066 333.9150 0002002 110.6665 249.4397 14.37473257372752
ORBCOMM FM30            
1 25980U 99065A   24354.35301014  .00001585  00000+0  58260-3 0  9990
2 25980  45.0305 220.4816 0005983 182.2413 177.8409 14.36530854308581
ORBCOMM FM31            
1 25981U 99065B   24354.32096887  .00001531  00000+0  56477-3 0  9996
2 25981  45.0217 214.1922 0003293 205.3336 154.7351 14.36500674308133
ORBCOMM FM32            
1 25982U 99065C   24355.01252377  .00001612  00000+0  60342-3 0  9998
2 25982  45.0147 226.2869 0005134 211.7294 148.3245 14.35538172308976
